CCSDS_OMM_VERS = 2.0
CREATION_DATE  = 
ORIGINATOR     = 

OBJECT_NAME    = STARLINK-36518
OBJECT_ID      = 2026-008J
CENTER_NAME    = EARTH
REF_FRAME      = TEME
TIME_SYSTEM    = UTC
MEAN_ELEMENT_THEORY = SGP/SGP4

EPOCH          = 2026-02-09T06:00:02.000160
MEAN_MOTION    = 15.50890249
ECCENTRICITY   = .00008008
INCLINATION    = 42.9997
RA_OF_ASC_NODE = 6.5723
ARG_OF_PERICENTER = 275.3958
MEAN_ANOMALY   = 100.7666

EPHEMERIS_TYPE = 0
CLASSIFICATION_TYPE = U
NORAD_CAT_ID   = 67453
ELEMENT_SET_NO = 999
REV_AT_EPOCH   = 524
BSTAR          = -.36162685E-1
MEAN_MOTION_DOT = -.1924715E-1
MEAN_MOTION_DDOT = 0

CCSDS_OMM_VERS = 2.0
CREATION_DATE  = 
ORIGINATOR     = 

OBJECT_NAME    = STARLINK-36517
OBJECT_ID      = 2026-008K
CENTER_NAME    = EARTH
REF_FRAME      = TEME
TIME_SYSTEM    = UTC
MEAN_ELEMENT_THEORY = SGP/SGP4

EPOCH          = 2026-02-09T06:00:02.000160
MEAN_MOTION    = 15.50612331
ECCENTRICITY   = .00011949
INCLINATION    = 43.0005
RA_OF_ASC_NODE = 7.2900
ARG_OF_PERICENTER = 269.7149
MEAN_ANOMALY   = 180.3713

EPHEMERIS_TYPE = 0
CLASSIFICATION_TYPE = U
NORAD_CAT_ID   = 67454
ELEMENT_SET_NO = 999
REV_AT_EPOCH   = 524
BSTAR          = -.1499107E-2
MEAN_MOTION_DOT = -.87413E-3
MEAN_MOTION_DDOT = 0

CCSDS_OMM_VERS = 2.0
CREATION_DATE  = 
ORIGINATOR     = 

OBJECT_NAME    = STARLINK-36516
OBJECT_ID      = 2026-008L
CENTER_NAME    = EARTH
REF_FRAME      = TEME
TIME_SYSTEM    = UTC
MEAN_ELEMENT_THEORY = SGP/SGP4

EPOCH          = 2026-02-09T06:00:02.000160
MEAN_MOTION    = 15.50551589
ECCENTRICITY   = .0001476
INCLINATION    = 43.0003
RA_OF_ASC_NODE = 7.1534
ARG_OF_PERICENTER = 270.1960
MEAN_ANOMALY   = 235.8018

EPHEMERIS_TYPE = 0
CLASSIFICATION_TYPE = U
NORAD_CAT_ID   = 67455
ELEMENT_SET_NO = 999
REV_AT_EPOCH   = 522
BSTAR          = .10441517E-3
MEAN_MOTION_DOT = .5783E-4
MEAN_MOTION_DDOT = 0

CCSDS_OMM_VERS = 2.0
CREATION_DATE  = 
ORIGINATOR     = 

OBJECT_NAME    = STARLINK-36493
OBJECT_ID      = 2026-008M
CENTER_NAME    = EARTH
REF_FRAME      = TEME
TIME_SYSTEM    = UTC
MEAN_ELEMENT_THEORY = SGP/SGP4

EPOCH          = 2026-02-09T06:00:02.000160
MEAN_MOTION    = 15.50696884
ECCENTRICITY   = .00012963
INCLINATION    = 43.0006
RA_OF_ASC_NODE = 7.1209
ARG_OF_PERICENTER = 285.9012
MEAN_ANOMALY   = 233.0885

EPHEMERIS_TYPE = 0
CLASSIFICATION_TYPE = U
NORAD_CAT_ID   = 67456
ELEMENT_SET_NO = 999
REV_AT_EPOCH   = 522
BSTAR          = -.41335704E-2
MEAN_MOTION_DOT = -.236645E-2
MEAN_MOTION_DDOT = 0

CCSDS_OMM_VERS = 2.0
CREATION_DATE  = 
ORIGINATOR     = 

OBJECT_NAME    = STARLINK-36529
OBJECT_ID      = 2026-008N
CENTER_NAME    = EARTH
REF_FRAME      = TEME
TIME_SYSTEM    = UTC
MEAN_ELEMENT_THEORY = SGP/SGP4

EPOCH          = 2026-02-09T06:00:02.000160
MEAN_MOTION    = 15.50559320
ECCENTRICITY   = .00008601
INCLINATION    = 43.0000
RA_OF_ASC_NODE = 6.8634
ARG_OF_PERICENTER = 252.6604
MEAN_ANOMALY   = 10.9243

EPHEMERIS_TYPE = 0
CLASSIFICATION_TYPE = U
NORAD_CAT_ID   = 67457
ELEMENT_SET_NO = 999
REV_AT_EPOCH   = 522
BSTAR          = -.75091231E-4
MEAN_MOTION_DOT = -.474E-4
MEAN_MOTION_DDOT = 0

CCSDS_OMM_VERS = 2.0
CREATION_DATE  = 
ORIGINATOR     = 

OBJECT_NAME    = STARLINK-36528
OBJECT_ID      = 2026-008P
CENTER_NAME    = EARTH
REF_FRAME      = TEME
TIME_SYSTEM    = UTC
MEAN_ELEMENT_THEORY = SGP/SGP4

EPOCH          = 2026-02-09T06:00:02.000160
MEAN_MOTION    = 15.52935437
ECCENTRICITY   = .00013849
INCLINATION    = 43.0004
RA_OF_ASC_NODE = 6.5435
ARG_OF_PERICENTER = 274.6887
MEAN_ANOMALY   = 118.5832

EPHEMERIS_TYPE = 0
CLASSIFICATION_TYPE = U
NORAD_CAT_ID   = 67458
ELEMENT_SET_NO = 999
REV_AT_EPOCH   = 524
BSTAR          = -.34405567E-1
MEAN_MOTION_DOT = -.1967644E-1
MEAN_MOTION_DDOT = 0

CCSDS_OMM_VERS = 2.0
CREATION_DATE  = 
ORIGINATOR     = 

OBJECT_NAME    = STARLINK-36546
OBJECT_ID      = 2026-008Q
CENTER_NAME    = EARTH
REF_FRAME      = TEME
TIME_SYSTEM    = UTC
MEAN_ELEMENT_THEORY = SGP/SGP4

EPOCH          = 2026-02-09T06:00:02.000160
MEAN_MOTION    = 15.50566514
ECCENTRICITY   = .00009381
INCLINATION    = 43.0002
RA_OF_ASC_NODE = 6.8457
ARG_OF_PERICENTER = 266.9688
MEAN_ANOMALY   = 3.4156

EPHEMERIS_TYPE = 0
CLASSIFICATION_TYPE = U
NORAD_CAT_ID   = 67459
ELEMENT_SET_NO = 999
REV_AT_EPOCH   = 522
BSTAR          = .31513352E-3
MEAN_MOTION_DOT = .1818E-3
MEAN_MOTION_DDOT = 0

CCSDS_OMM_VERS = 2.0
CREATION_DATE  = 
ORIGINATOR     = 

OBJECT_NAME    = STARLINK-36523
OBJECT_ID      = 2026-008R
CENTER_NAME    = EARTH
REF_FRAME      = TEME
TIME_SYSTEM    = UTC
MEAN_ELEMENT_THEORY = SGP/SGP4

EPOCH          = 2026-02-09T06:00:02.000160
MEAN_MOTION    = 15.50626824
ECCENTRICITY   = .00017312
INCLINATION    = 43.0002
RA_OF_ASC_NODE = 6.8110
ARG_OF_PERICENTER = 274.1870
MEAN_ANOMALY   = 10.4114

EPHEMERIS_TYPE = 0
CLASSIFICATION_TYPE = U
NORAD_CAT_ID   = 67460
ELEMENT_SET_NO = 999
REV_AT_EPOCH   = 524
BSTAR          = -.15415011E-2
MEAN_MOTION_DOT = -.89898E-3
MEAN_MOTION_DDOT = 0

CCSDS_OMM_VERS = 2.0
CREATION_DATE  = 
ORIGINATOR     = 

OBJECT_NAME    = STARLINK-36522
OBJECT_ID      = 2026-008S
CENTER_NAME    = EARTH
REF_FRAME      = TEME
TIME_SYSTEM    = UTC
MEAN_ELEMENT_THEORY = SGP/SGP4

EPOCH          = 2026-02-09T06:00:02.000160
MEAN_MOTION    = 15.50628270
ECCENTRICITY   = .00014051
INCLINATION    = 43.0005
RA_OF_ASC_NODE = 7.1144
ARG_OF_PERICENTER = 277.0146
MEAN_ANOMALY   = 244.1155

EPHEMERIS_TYPE = 0
CLASSIFICATION_TYPE = U
NORAD_CAT_ID   = 67461
ELEMENT_SET_NO = 999
REV_AT_EPOCH   = 522
BSTAR          = -.19802864E-2
MEAN_MOTION_DOT = -.115026E-2
MEAN_MOTION_DDOT = 0

CCSDS_OMM_VERS = 2.0
CREATION_DATE  = 
ORIGINATOR     = 

OBJECT_NAME    = STARLINK-36504
OBJECT_ID      = 2026-008T
CENTER_NAME    = EARTH
REF_FRAME      = TEME
TIME_SYSTEM    = UTC
MEAN_ELEMENT_THEORY = SGP/SGP4

EPOCH          = 2026-02-09T06:00:02.000160
MEAN_MOTION    = 15.50592524
ECCENTRICITY   = .0001028
INCLINATION    = 42.9999
RA_OF_ASC_NODE = 6.6194
ARG_OF_PERICENTER = 278.2951
MEAN_ANOMALY   = 83.6142

EPHEMERIS_TYPE = 0
CLASSIFICATION_TYPE = U
NORAD_CAT_ID   = 67462
ELEMENT_SET_NO = 999
REV_AT_EPOCH   = 524
BSTAR          = -.13479204E-2
MEAN_MOTION_DOT = -.78663E-3
MEAN_MOTION_DDOT = 0

CCSDS_OMM_VERS = 2.0
CREATION_DATE  = 
ORIGINATOR     = 

OBJECT_NAME    = STARLINK-36505
OBJECT_ID      = 2026-008U
CENTER_NAME    = EARTH
REF_FRAME      = TEME
TIME_SYSTEM    = UTC
MEAN_ELEMENT_THEORY = SGP/SGP4

EPOCH          = 2026-02-09T06:00:02.000160
MEAN_MOTION    = 15.50559639
ECCENTRICITY   = .00014078
INCLINATION    = 42.9999
RA_OF_ASC_NODE = 6.7187
ARG_OF_PERICENTER = 265.3244
MEAN_ANOMALY   = 56.9152

EPHEMERIS_TYPE = 0
CLASSIFICATION_TYPE = U
NORAD_CAT_ID   = 67463
ELEMENT_SET_NO = 999
REV_AT_EPOCH   = 522
BSTAR          = -.12115925E-3
MEAN_MOTION_DOT = -.7438E-4
MEAN_MOTION_DDOT = 0

CCSDS_OMM_VERS = 2.0
CREATION_DATE  = 
ORIGINATOR     = 

OBJECT_NAME    = STARLINK-36421
OBJECT_ID      = 2026-008V
CENTER_NAME    = EARTH
REF_FRAME      = TEME
TIME_SYSTEM    = UTC
MEAN_ELEMENT_THEORY = SGP/SGP4

EPOCH          = 2026-02-09T06:00:02.000160
MEAN_MOTION    = 15.50596660
ECCENTRICITY   = .00011587
INCLINATION    = 43.0003
RA_OF_ASC_NODE = 7.1067
ARG_OF_PERICENTER = 255.4929
MEAN_ANOMALY   = 268.9153

EPHEMERIS_TYPE = 0
CLASSIFICATION_TYPE = U
NORAD_CAT_ID   = 67464
ELEMENT_SET_NO = 999
REV_AT_EPOCH   = 522
BSTAR          = -.37013949E-4
MEAN_MOTION_DOT = -.2513E-4
MEAN_MOTION_DDOT = 0

CCSDS_OMM_VERS = 2.0
CREATION_DATE  = 
ORIGINATOR     = 

OBJECT_NAME    = STARLINK-36437
OBJECT_ID      = 2026-008W
CENTER_NAME    = EARTH
REF_FRAME      = TEME
TIME_SYSTEM    = UTC
MEAN_ELEMENT_THEORY = SGP/SGP4

EPOCH          = 2026-02-09T06:00:02.000160
MEAN_MOTION    = 15.50490902
ECCENTRICITY   = .00010113
INCLINATION    = 43.0003
RA_OF_ASC_NODE = 6.6891
ARG_OF_PERICENTER = 295.3635
MEAN_ANOMALY   = 38.2767

EPHEMERIS_TYPE = 0
CLASSIFICATION_TYPE = U
NORAD_CAT_ID   = 67465
ELEMENT_SET_NO = 999
REV_AT_EPOCH   = 522
BSTAR          = .21520263E-2
MEAN_MOTION_DOT = .127584E-2
MEAN_MOTION_DDOT = 0

CCSDS_OMM_VERS = 2.0
CREATION_DATE  = 
ORIGINATOR     = 

OBJECT_NAME    = STARLINK-36520
OBJECT_ID      = 2026-008X
CENTER_NAME    = EARTH
REF_FRAME      = TEME
TIME_SYSTEM    = UTC
MEAN_ELEMENT_THEORY = SGP/SGP4

EPOCH          = 2026-02-09T06:00:02.000160
MEAN_MOTION    = 15.50558707
ECCENTRICITY   = .00014303
INCLINATION    = 43.0001
RA_OF_ASC_NODE = 6.8802
ARG_OF_PERICENTER = 268.3395
MEAN_ANOMALY   = 347.6568

EPHEMERIS_TYPE = 0
CLASSIFICATION_TYPE = U
NORAD_CAT_ID   = 67466
ELEMENT_SET_NO = 999
REV_AT_EPOCH   = 522
BSTAR          = .16454368E-3
MEAN_MOTION_DOT = .9316E-4
MEAN_MOTION_DDOT = 0

CCSDS_OMM_VERS = 2.0
CREATION_DATE  = 
ORIGINATOR     = 

OBJECT_NAME    = STARLINK-36425
OBJECT_ID      = 2026-008Y
CENTER_NAME    = EARTH
REF_FRAME      = TEME
TIME_SYSTEM    = UTC
MEAN_ELEMENT_THEORY = SGP/SGP4

EPOCH          = 2026-02-09T06:00:02.000160
MEAN_MOTION    = 15.50578147
ECCENTRICITY   = .00013098
INCLINATION    = 43.0002
RA_OF_ASC_NODE = 7.2685
ARG_OF_PERICENTER = 263.7367
MEAN_ANOMALY   = 194.7898

EPHEMERIS_TYPE = 0
CLASSIFICATION_TYPE = U
NORAD_CAT_ID   = 67467
ELEMENT_SET_NO = 999
REV_AT_EPOCH   = 522
BSTAR          = -.6879358E-3
MEAN_MOTION_DOT = -.40489E-3
MEAN_MOTION_DDOT = 0

